{"type": "FeatureCollection", "features": [{"type": "Feature", "properties": {"name": "Furman University"}, "geometry": {"type": "Polygon", "coordinates": [[[-82.4443277, 34.9196056], [-82.4445135, 34.9197337], [-82.4446323, 34.9197756], [-82.4447481, 34.9198131], [-82.4448375, 34.9198353], [-82.4449402, 34.9198608], [-82.4450592, 34.9198917], [-82.4455467, 34.9199829], [-82.4464991, 34.9201033], [-82.4472129, 34.9202176], [-82.4475091, 34.9203041], [-82.4479267, 34.9204928], [-82.448316, 34.9207307], [-82.4486133, 34.9209426], [-82.448792, 34.9210889], [-82.4489892, 34.9213139], [-82.4491375, 34.9215373], [-82.4493605, 34.9219553], [-82.4496523, 34.9225461], [-82.450209, 34.9237164], [-82.4502559, 34.9239244], [-82.4494027, 34.923973], [-82.4478017, 34.9233983], [-82.4471587, 34.9223756], [-82.4464386, 34.9220276], [-82.4457897, 34.9222057], [-82.4453495, 34.9222361], [-82.4451555, 34.92301], [-82.4450821, 34.9233926], [-82.4449405, 34.924016], [-82.4446679, 34.9245276], [-82.4441488, 34.9252112], [-82.443551, 34.9260194], [-82.443163, 34.9265482], [-82.4429323, 34.9269781], [-82.4427382, 34.9275757], [-82.4426281, 34.9285817], [-82.4424656, 34.929794], [-82.4422873, 34.9311954], [-82.4422191, 34.9336672], [-82.4421772, 34.9341057], [-82.4419045, 34.9344023], [-82.4415742, 34.9346516], [-82.4411757, 34.9347806], [-82.4407824, 34.9347763], [-82.4403419, 34.9346387], [-82.4397914, 34.934282], [-82.4393352, 34.933865], [-82.438879, 34.9333663], [-82.4385591, 34.9329279], [-82.4382131, 34.9329837], [-82.4381134, 34.9335856], [-82.4376573, 34.9345657], [-82.4373007, 34.9350256], [-82.4367029, 34.9357349], [-82.4362834, 34.9361433], [-82.4339711, 34.9357263], [-82.4336197, 34.9345313], [-82.4333838, 34.9330697], [-82.4333104, 34.9315479], [-82.4332999, 34.9288912], [-82.4333209, 34.9255293], [-82.4333051, 34.9243256], [-82.4333628, 34.9234743], [-82.4335411, 34.9228122], [-82.4343748, 34.9225199], [-82.4352505, 34.9215783], [-82.4357381, 34.9207571], [-82.4357853, 34.9200735], [-82.4356962, 34.919162], [-82.4358692, 34.9178206], [-82.4359112, 34.9168102], [-82.435801, 34.9157525], [-82.4361112, 34.9149656], [-82.4366484, 34.9151488], [-82.4375508, 34.9154554], [-82.4386037, 34.9158007], [-82.4398542, 34.9161919], [-82.4401893, 34.9163152], [-82.4404834, 34.9164253], [-82.441023, 34.9166817], [-82.4412766, 34.9168085], [-82.4415215, 34.91696], [-82.4419942, 34.917256], [-82.4423036, 34.9174675], [-82.4426044, 34.9177035], [-82.4428537, 34.9179361], [-82.4431158, 34.9181933], [-82.4433135, 34.9184294], [-82.4433173, 34.9185205], [-82.4435441, 34.918792], [-82.4438183, 34.9191055], [-82.4438903, 34.9191878], [-82.4442013, 34.9194792], [-82.4443277, 34.9196056]]]}}]}