{"type": "FeatureCollection", "features": [{"type": "Feature", "id": "n14116782047", "properties": {"entrance": "main", "on_campus": true}, "geometry": {"type": "Point", "coordinates": [-82.4408228, 34.9226519]}}, {"type": "Feature", "id": "n14116782048", "properties": {"entrance": "yes", "on_campus": true}, "geometry": {"type": "Point", "coordinates": [-82.44033, 34.9229198]}}, {"type": "Feature", "id": "n14116782049", "properties": {"entrance": "yes", "on_campus": true}, "geometry": {"type": "Point", "coordinates": [-82.4401633, 34.9231554]}}, {"type": "Feature", "id": "n14116969193", "properties": {"entrance": "yes", "on_campus": true}, "geometry": {"type": "Point", "coordinates": [-82.4372091, 34.9277074]}}, {"type": "Feature", "id": "n14116974098", "properties": {"entrance": "yes", "on_campus": true}, "geometry": {"type": "Point", "coordinates": [-82.438822, 34.9234999]}}, {"type": "Feature", "id": "n14116974099", "properties": {"entrance": "yes", "on_campus": true}, "geometry": {"type": "Point", "coordinates": [-82.4387099, 34.9234636]}}, {"type": "Feature", "id": "n14117731821", "properties": {"entrance": "main", "on_campus": true}, "geometry": {"type": "Point", "coordinates": [-82.4369124, 34.9314061]}}, {"type": "Feature", "id": "n14117746308", "properties": {"entrance": "main", "on_campus": true}, "geometry": {"type": "Point", "coordinates": [-82.4373315, 34.9312546]}}, {"type": "Feature", "id": "n14117746309", "properties": {"entrance": "main", "on_campus": true}, "geometry": {"type": "Point", "coordinates": [-82.4374367, 34.9315046]}}, {"type": "Feature", "id": "n14117751447", "properties": {"entrance": "main", "on_campus": true}, "geometry": {"type": "Point", "coordinates": [-82.4394819, 34.9212674]}}, {"type": "Feature", "id": "n14117751448", "properties": {"entrance": "yes", "on_campus": true}, "geometry": {"type": "Point", "coordinates": [-82.4393152, 34.9223442]}}, {"type": "Feature", "id": "n14117751449", "properties": {"entrance": "yes", "on_campus": true}, "geometry": {"type": "Point", "coordinates": [-82.4416754, 34.9220218]}}, {"type": "Feature", "id": "n14117889614", "properties": {"entrance": "main", "on_campus": true}, "geometry": {"type": "Point", "coordinates": [-82.4386799, 34.9244266]}}, {"type": "Feature", "id": "n3078471926", "properties": {"entrance": "yes", "on_campus": true}, "geometry": {"type": "Point", "coordinates": [-82.4386105, 34.9232271]}}, {"type": "Feature", "id": "n3078471928", "properties": {"entrance": "yes", "on_campus": true}, "geometry": {"type": "Point", "coordinates": [-82.4389887, 34.9228763]}}, {"type": "Feature", "id": "n3078471933", "properties": {"entrance": "yes", "on_campus": true}, "geometry": {"type": "Point", "coordinates": [-82.4395837, 34.9231456]}}, {"type": "Feature", "id": "n3078471960", "properties": {"entrance": "yes", "on_campus": true}, "geometry": {"type": "Point", "coordinates": [-82.4383972, 34.9233891]}}, {"type": "Feature", "id": "n3079063864", "properties": {"entrance": "main", "on_campus": true}, "geometry": {"type": "Point", "coordinates": [-82.4375799, 34.9249899]}}, {"type": "Feature", "id": "n3222447706", "properties": {"entrance": "yes", "on_campus": true}, "geometry": {"type": "Point", "coordinates": [-82.4369309, 34.9276105]}}, {"type": "Feature", "id": "n3222447707", "properties": {"entrance": "yes", "on_campus": true}, "geometry": {"type": "Point", "coordinates": [-82.4375642, 34.9267187]}}, {"type": "Feature", "id": "n3222447708", "properties": {"entrance": "yes", "on_campus": true}, "geometry": {"type": "Point", "coordinates": [-82.4359244, 34.9267652]}}, {"type": "Feature", "id": "n3222447709", "properties": {"entrance": "yes", "on_campus": true}, "geometry": {"type": "Point", "coordinates": [-82.4346824, 34.9264381]}}, {"type": "Feature", "id": "n3222447710", "properties": {"entrance": "yes", "on_campus": true}, "geometry": {"type": "Point", "coordinates": [-82.4340969, 34.926666]}}, {"type": "Feature", "id": "n3222447711", "properties": {"entrance": "yes", "on_campus": true}, "geometry": {"type": "Point", "coordinates": [-82.434519, 34.926798]}}, {"type": "Feature", "id": "n3222447712", "properties": {"entrance": "yes", "on_campus": true}, "geometry": {"type": "Point", "coordinates": [-82.4350571, 34.926446]}}, {"type": "Feature", "id": "n4494810335", "properties": {"entrance": "main", "on_campus": true}, "geometry": {"type": "Point", "coordinates": [-82.4404598, 34.9244143]}}, {"type": "Feature", "id": "n4494810336", "properties": {"entrance": "yes", "on_campus": true}, "geometry": {"type": "Point", "coordinates": [-82.4408314, 34.9245082]}}, {"type": "Feature", "id": "n4494810337", "properties": {"entrance": "yes", "on_campus": true}, "geometry": {"type": "Point", "coordinates": [-82.440697, 34.9246607]}}, {"type": "Feature", "id": "n4494810338", "properties": {"entrance": "yes", "on_campus": true}, "geometry": {"type": "Point", "coordinates": [-82.440701, 34.9245406]}}]}